*******************************************************************************
Revised: Jul 31, 2013                  Earth                                399
 
PHYSICAL PROPERTIES (revised Sep 18, 2013):
 Mean radius, km          = 6371.01+-0.01   Mass, 10^24 kg = 5.97219+-0.0006
 Equ. radius, km          = 6378.14+-0.01   Mass layers:
 Polar axis, km           = 6356.752          Atmos          = 5.1   x 10^18 kg
 Flattening               = 1/298.257         oceans         = 1.4   x 10^21 kg
 Density, gm cm^-3        = 5.515             crust          = 2.6   x 10^22 kg
 J2  (GEM T2, 1990)       = 0.0010826265      mantle         = 4.043 x 10^24 kg
 gp, m s^-2 (polar)       = 9.8321863685      outer core     = 1.835 x 10^24 kg
 ge, m s^-2 (equatorial)  = 9.7803267715      inner core     = 9.675 x 10^22 kg
 go, m s^-2               = 9.82022         Fluid core rad   = 3480 km
 GM, km^3 s^-2            = 398600.440      Inner core rad   = 1215 km
 Mean rot. rate, rad s^-1 = 7.292115*10^-5  Surface Area:
 Sidereal period, hr      = 23.93419          land           = 1.48 x 10^8 km
 Mean solar day, days     = 1.002738          sea            = 3.62 x 10^8 km
 Moment of inertia        = 0.3308          Love no., k2     = 0.299
 Mean Temperature, K      = 270             Atm. pressure    = 1.0 bar
 Solar constant, W/m^2    = 1367.6          Vis. mag. V(1,0) = -3.86
 Volume, 10^10 km^3       = 108.321         Geometric albedo = 0.367 

DYNAMICAL CHARACTERISTICS:
 Obliquity to orbit, deg  = 23.45           Sidereal period  = 1.0000174  yrs
 Orbit velocity, km s^-1  = 29.7859         Sidereal period  = 365.25636  days
 Mean daily motion, n     = 0.9856474 deg/d Escape velocity  = 11.186 km s^-1
 Hill's sphere radius     = 234.9           Magnetic moment  = 0.61 gauss Rp^3
*******************************************************************************
 
 
*******************************************************************************
Ephemeris / WWW_USER Sun Jul 15 22:14:06 2018 Pasadena, USA      / Horizons    
*******************************************************************************
Target body name: Earth (399)                     {source: DE431mx}
Center body name: Solar System Barycenter (0)     {source: DE431mx}
Center-site name: BODY CENTER
*******************************************************************************
Start time      : A.D. 2017-Jan-01 00:00:00.0000 TDB
Stop  time      : A.D. 2020-Jan-01 00:00:00.0000 TDB
Step-size       : 1440 minutes
*******************************************************************************
Center geodetic : 0.00000000,0.00000000,0.0000000 {E-lon(deg),Lat(deg),Alt(km)}
Center cylindric: 0.00000000,0.00000000,0.0000000 {E-lon(deg),Dxy(km),Dz(km)}
Center radii    : (undefined)                                                  
Output units    : AU-D                                                         
Output type     : GEOMETRIC cartesian states
Output format   : 3 (position, velocity, LT, range, range-rate)
Reference frame : ICRF/J2000.0                                                 
Coordinate systm: Ecliptic and Mean Equinox of Reference Epoch                 
*******************************************************************************
JDTDB
   X     Y     Z
   VX    VY    VZ
   LT    RG    RR
*******************************************************************************
$$SOE
2457908.500000000 = A.D. 2017-Jun-04 00:00:00.0000 TDB 
 X =-2.879040912885003E-01 Y =-9.669266739826686E-01 Z =-1.049987014092595E-04
 VX= 1.619722493777273E-02 VY=-4.983029156949052E-03 VZ=-2.225663086356219E-07
 LT= 5.826796677116159E-03 RG= 1.008878570326762E+00 RR= 1.536126446827906E-04
2457909.500000000 = A.D. 2017-Jun-05 00:00:00.0000 TDB 
 X =-2.716671710575420E-01 Y =-9.717719617120943E-01 Z =-1.051756463892027E-04
 VX= 1.627586454223295E-02 VY=-4.707385616903246E-03 VZ=-1.286117893383140E-07
 LT= 5.827677751538646E-03 RG= 1.009031123634002E+00 RR= 1.515189063201460E-04
2457910.500000000 = A.D. 2017-Jun-06 00:00:00.0000 TDB 
 X =-2.553538585508089E-01 Y =-9.763411304535361E-01 Z =-1.052513783569142E-04
 VX= 1.635001487036944E-02 VY=-4.430797621704561E-03 VZ=-2.101776519643229E-08
 LT= 5.828547132124848E-03 RG= 1.009181652216254E+00 RR= 1.495573925215777E-04
2457911.500000000 = A.D. 2017-Jun-07 00:00:00.0000 TDB 
 X =-2.389686280420822E-01 Y =-9.806332542728163E-01 Z =-1.052148913746804E-04
 VX= 1.641970480796901E-02 VY=-4.153301429087339E-03 VZ= 9.494803902178880E-08
 LT= 5.829405481739968E-03 RG= 1.009330270845070E+00 RR= 1.476931385905642E-04
2457912.500000000 = A.D. 2017-Jun-08 00:00:00.0000 TDB 
 X =-2.225159282041962E-01 Y =-9.846474412097180E-01 Z =-1.050604459240800E-04
 VX= 1.648495672287406E-02 VY=-3.874928790789915E-03 VZ= 2.140240634343301E-07
 LT= 5.830253259922587E-03 RG= 1.009477059087089E+00 RR= 1.458906354667955E-04
2457913.500000000 = A.D. 2017-Jun-09 00:00:00.0000 TDB 
 X =-2.060001885692546E-01 Y =-9.883828289403230E-01 Z =-1.047875486114298E-04
 VX= 1.654578648995197E-02 VY=-3.595707284810675E-03 VZ= 3.309871954047201E-07
 LT= 5.831090718718054E-03 RG= 1.009622060582610E+00 RR= 1.441134977562523E-04
2457914.500000000 = A.D. 2017-Jun-10 00:00:00.0000 TDB 
 X =-1.894258261958943E-01 Y =-9.918385808065882E-01 Z =-1.044008858197183E-04
 VX= 1.660220309354842E-02 VY=-3.315660758407697E-03 VZ= 4.407136365650653E-07
 LT= 5.831917897135626E-03 RG= 1.009765282085876E+00 RR= 1.423243400485882E-04
2457915.500000000 = A.D. 2017-Jun-11 00:00:00.0000 TDB 
 X =-1.727972528372966E-01 Y =-9.950138824103960E-01 Z =-1.039101824837794E-04
 VX= 1.665420806542068E-02 VY=-3.034810020176708E-03 VZ= 5.382662223733558E-07
 LT= 5.832734615627732E-03 RG= 1.009906692509190E+00 RR= 1.404849020108108E-04
2457916.500000000 = A.D. 2017-Jun-12 00:00:00.0000 TDB 
 X =-1.561188826626763E-01 Y =-9.979079390118385E-01 Z =-1.033299656480305E-04
 VX= 1.670179496500413E-02 VY=-2.753173737521564E-03 VZ= 6.189949035143859E-07
 LT= 5.833540471809823E-03 RG= 1.010046222181826E+00 RR= 1.385563301163365E-04
2457917.500000000 = A.D. 2017-Jun-13 00:00:00.0000 TDB 
 X =-1.393951404403806E-01 Y =-1.000519973867852E+00 Z =-1.026792272100959E-04
 VX= 1.674494897393322E-02 VY=-2.470769392217585E-03 VZ= 6.786359349900177E-07
 LT= 5.834334837899286E-03 RG= 1.010183762406595E+00 RR= 1.364994660340671E-04
2457918.500000000 = A.D. 2017-Jun-14 00:00:00.0000 TDB 
 X =-1.226304701032464E-01 Y =-1.002849227493463E+00 Z =-1.019809910549377E-04
 VX= 1.678364650699782E-02 VY=-2.187614153707014E-03 VZ= 7.134041741700272E-07
 LT= 5.835116859533922E-03 RG= 1.010319165255268E+00 RR= 1.342750239831895E-04
2457919.500000000 = A.D. 2017-Jun-15 00:00:00.0000 TDB 
 X =-1.058293437908042E-01 Y =-1.004894957741573E+00 Z =-1.012617875954793E-04
 VX= 1.681785459961845E-02 VY=-1.903725657388672E-03 VZ= 7.200894232248333E-07
 LT= 5.835885455265562E-03 RG= 1.010452243480898E+00 RR= 1.318436628037778E-04
2457920.500000000 = A.D. 2017-Jun-16 00:00:00.0000 TDB 
 X =-8.899627173747997E-02 Y =-1.006656440693181E+00 Z =-1.005510179877833E-04
 VX= 1.684752978378662E-02 VY=-1.619122907301405E-03 VZ= 6.961874123212699E-07
 LT= 5.836639316603691E-03 RG= 1.010582770525375E+00 RR= 1.291661583498533E-04
2457921.500000000 = A.D. 2017-Jun-17 00:00:00.0000 TDB 
 X =-7.213581362402402E-02 Y =-1.008132972713905E+00 Z =-9.988015096296909E-05
 VX= 1.687261627685836E-02 VY=-1.333827816965581E-03 VZ= 6.401122344698070E-07
 LT= 5.837376910370911E-03 RG= 1.010710480927264E+00 RR= 1.262041282656443E-04
2457922.500000000 = A.D. 2017-Jun-18 00:00:00.0000 TDB 
 X =-5.525259203562047E-02 Y =-1.009323874690798E+00 Z =-9.928164522703192E-05
 VX= 1.689304365058909E-02 VY=-1.047868177726360E-03 VZ= 5.515401640669369E-07
 LT= 5.838096488450000E-03 RG= 1.010835072009448E+00 RR= 1.229219967973687E-04
2457923.500000000 = A.D. 2017-Jun-19 00:00:00.0000 TDB 
 X =-3.835130821228595E-02 Y =-1.010228500325809E+00 Z =-9.878744976955250E-05
 VX= 1.690872477855224E-02 VY=-7.612829402944761E-04 VZ= 4.319099247546463E-07
 LT= 5.838796114375788E-03 RG= 1.010956208483378E+00 RR= 1.192909880359474E-04
2457924.500000000 = A.D. 2017-Jun-20 00:00:00.0000 TDB 
 X =-2.143675905495166E-02 Y =-1.010846251117302E+00 Z =-9.842694063379527E-05
 VX= 1.691955573222764E-02 VY=-4.741303260441845E-04 VZ= 2.850326529782017E-07
 LT= 5.839473720249246E-03 RG= 1.011073532303436E+00 RR= 1.152956647512370E-04
2457925.500000000 = A.D. 2017-Jun-21 00:00:00.0000 TDB 
 X =-4.513852261003488E-03 Y =-1.011176600662189E+00 Z =-9.822425911482804E-05
 VX= 1.692542006407827E-02 VY=-1.864980924418158E-04 VZ= 1.176370988113193E-07
 LT= 5.840127208065940E-03 RG= 1.011186680211414E+00 RR= 1.109425709032806E-04
2457926.500000000 = A.D. 2017-Jun-22 00:00:00.0000 TDB 
 X = 1.241238601620544E-02 Y =-1.011219129247450E+00 Z =-9.819526634120970E-05
 VX= 1.692619974976791E-02 VY= 1.014868174374918E-04 VZ=-6.047160617924358E-08
 LT= 5.840754602249061E-03 RG= 1.011295310146792E+00 RR= 1.062687810197693E-04
2457927.500000000 = A.D. 2017-Jun-23 00:00:00.0000 TDB 
 X = 2.933681798824439E-02 Y =-1.010973565792855E+00 Z =-9.834469087289145E-05
 VX= 1.692179292786801E-02 VY= 3.896541496190074E-04 VZ=-2.370114861299930E-07
 LT= 5.841354241778281E-03 RG= 1.011399134512816E+00 RR= 1.013462775519479E-04
2457928.500000000 = A.D. 2017-Jun-24 00:00:00.0000 TDB 
 X = 4.625422071912384E-02 Y =-1.010439828972015E+00 Z =-9.866434238997946E-05
 VX= 1.691213444342629E-02 VY= 6.777967585762170E-04 VZ=-3.987512278078245E-07
 LT= 5.841924974669530E-03 RG= 1.011497953849627E+00 RR= 9.627780020324447E-05
2457929.500000000 = A.D. 2017-Jun-25 00:00:00.0000 TDB 
 X = 6.315933139545009E-02 Y =-1.009618055860964E+00 Z =-9.913321372944032E-05
 VX= 1.689721143236183E-02 VY= 9.656888312199865E-04 VZ=-5.336636955991773E-07
 LT= 5.842466299319646E-03 RG= 1.011591681307328E+00 RR= 9.118278726565876E-05
